{
  "type": "FeatureCollection",
  "name": "guinea_admin_regions",
  "features": [
    {
      "type": "Feature",
      "properties": { "name": "Conakry", "code": "CK", "capital": "Conakry" },
      "geometry": {
        "type": "Polygon",
        "coordinates": [[[-13.72,9.52],[-13.68,9.55],[-13.63,9.56],[-13.59,9.54],[-13.56,9.51],[-13.58,9.48],[-13.63,9.46],[-13.68,9.48],[-13.72,9.52]]]
      }
    },
    {
      "type": "Feature",
      "properties": { "name": "Boké", "code": "BK", "capital": "Boké" },
      "geometry": {
        "type": "Polygon",
        "coordinates": [[[-14.80,12.20],[-14.20,12.50],[-13.50,12.30],[-12.80,11.80],[-12.60,11.20],[-12.80,10.80],[-13.20,10.60],[-13.80,10.40],[-14.30,10.50],[-14.90,10.80],[-15.00,11.50],[-14.80,12.20]]]
      }
    },
    {
      "type": "Feature",
      "properties": { "name": "Kindia", "code": "KD", "capital": "Kindia" },
      "geometry": {
        "type": "Polygon",
        "coordinates": [[[-13.56,9.51],[-13.20,9.70],[-12.90,10.00],[-12.60,10.40],[-12.80,10.80],[-13.20,10.60],[-13.80,10.40],[-14.00,10.00],[-13.90,9.60],[-13.70,9.48],[-13.63,9.46],[-13.58,9.48],[-13.56,9.51]]]
      }
    },
    {
      "type": "Feature",
      "properties": { "name": "Labé", "code": "LB", "capital": "Labé" },
      "geometry": {
        "type": "Polygon",
        "coordinates": [[[-12.80,11.80],[-12.20,12.00],[-11.50,12.00],[-11.00,11.70],[-11.20,11.20],[-11.50,10.80],[-12.00,10.60],[-12.60,10.40],[-12.80,10.80],[-12.60,11.20],[-12.80,11.80]]]
      }
    },
    {
      "type": "Feature",
      "properties": { "name": "Mamou", "code": "MM", "capital": "Mamou" },
      "geometry": {
        "type": "Polygon",
        "coordinates": [[[-12.60,10.40],[-12.00,10.60],[-11.50,10.80],[-11.20,10.50],[-11.50,10.00],[-12.00,9.80],[-12.40,10.00],[-12.60,10.40]]]
      }
    },
    {
      "type": "Feature",
      "properties": { "name": "Faranah", "code": "FR", "capital": "Faranah" },
      "geometry": {
        "type": "Polygon",
        "coordinates": [[[-11.50,10.80],[-11.00,11.20],[-10.50,11.20],[-10.00,10.80],[-9.80,10.30],[-10.20,9.80],[-10.80,9.70],[-11.20,10.00],[-11.50,10.00],[-11.20,10.50],[-11.50,10.80]]]
      }
    },
    {
      "type": "Feature",
      "properties": { "name": "Kankan", "code": "KN", "capital": "Kankan" },
      "geometry": {
        "type": "Polygon",
        "coordinates": [[[-10.50,11.20],[-10.00,11.50],[-9.30,11.80],[-8.60,11.40],[-8.30,10.80],[-8.50,10.20],[-9.00,9.80],[-9.50,9.50],[-9.80,9.80],[-10.00,10.00],[-9.80,10.30],[-10.00,10.80],[-10.50,11.20]]]
      }
    },
    {
      "type": "Feature",
      "properties": { "name": "N'Zérékoré", "code": "NZ", "capital": "N'Zérékoré" },
      "geometry": {
        "type": "Polygon",
        "coordinates": [[[-10.20,9.80],[-9.80,9.80],[-9.50,9.50],[-9.00,8.80],[-8.60,8.20],[-8.30,7.60],[-8.50,7.30],[-9.00,7.20],[-9.50,7.50],[-10.00,7.80],[-10.50,8.20],[-10.80,8.80],[-10.80,9.70],[-10.20,9.80]]]
      }
    }
  ]
}
