{
  "type": "FeatureCollection",
  "features": [
    {
      "type": "Feature",
      "properties": {
        "name": "Conakry",
        "code": "CK",
        "capital": "Conakry"
      },
      "geometry": {
        "type": "Polygon",
        "coordinates": [[
          [-13.72, 9.52],
          [-13.68, 9.55],
          [-13.63, 9.56],
          [-13.59, 9.54],
          [-13.56, 9.51],
          [-13.58, 9.48],
          [-13.63, 9.46],
          [-13.68, 9.48],
          [-13.72, 9.52]
        ]]
      }
    },
    {
      "type": "Feature",
      "properties": {
        "name": "Boké",
        "code": "BK",
        "capital": "Boké"
      },
      "geometry": {
        "type": "Polygon",
        "coordinates": [[
          [-14.8, 12.2],
          [-14.2, 12.5],
          [-13.5, 12.3],
          [-12.8, 11.8],
          [-12.6, 11.2],
          [-12.8, 10.8],
          [-13.2, 10.6],
          [-13.8, 10.4],
          [-14.3, 10.5],
          [-14.9, 10.8],
          [-15.0, 11.5],
          [-14.8, 12.2]
        ]]
      }
    },
    {
      "type": "Feature",
      "properties": {
        "name": "Kindia",
        "code": "KD",
        "capital": "Kindia"
      },
      "geometry": {
        "type": "Polygon",
        "coordinates": [[
          [-13.56, 9.51],
          [-13.2, 9.7],
          [-12.9, 10.0],
          [-12.6, 10.4],
          [-12.8, 10.8],
          [-13.2, 10.6],
          [-13.8, 10.4],
          [-14.0, 10.0],
          [-13.9, 9.6],
          [-13.7, 9.48],
          [-13.63, 9.46],
          [-13.58, 9.48],
          [-13.56, 9.51]
        ]]
      }
    },
    {
      "type": "Feature",
      "properties": {
        "name": "Labé",
        "code": "LB",
        "capital": "Labé"
      },
      "geometry": {
        "type": "Polygon",
        "coordinates": [[
          [-12.8, 11.8],
          [-12.2, 12.0],
          [-11.5, 12.0],
          [-11.0, 11.7],
          [-11.2, 11.2],
          [-11.5, 10.8],
          [-12.0, 10.6],
          [-12.6, 10.4],
          [-12.8, 10.8],
          [-12.6, 11.2],
          [-12.8, 11.8]
        ]]
      }
    },
    {
      "type": "Feature",
      "properties": {
        "name": "Mamou",
        "code": "MM",
        "capital": "Mamou"
      },
      "geometry": {
        "type": "Polygon",
        "coordinates": [[
          [-12.6, 10.4],
          [-12.0, 10.6],
          [-11.5, 10.8],
          [-11.2, 10.5],
          [-11.5, 10.0],
          [-12.0, 9.8],
          [-12.4, 10.0],
          [-12.6, 10.4]
        ]]
      }
    },
    {
      "type": "Feature",
      "properties": {
        "name": "Faranah",
        "code": "FR",
        "capital": "Faranah"
      },
      "geometry": {
        "type": "Polygon",
        "coordinates": [[
          [-11.5, 10.8],
          [-11.0, 11.2],
          [-10.5, 11.2],
          [-10.0, 10.8],
          [-9.8, 10.3],
          [-10.2, 9.8],
          [-10.8, 9.7],
          [-11.2, 10.0],
          [-11.5, 10.0],
          [-11.2, 10.5],
          [-11.5, 10.8]
        ]]
      }
    },
    {
      "type": "Feature",
      "properties": {
        "name": "Kankan",
        "code": "KN",
        "capital": "Kankan"
      },
      "geometry": {
        "type": "Polygon",
        "coordinates": [[
          [-10.5, 11.2],
          [-10.0, 11.5],
          [-9.3, 11.8],
          [-8.6, 11.4],
          [-8.3, 10.8],
          [-8.5, 10.2],
          [-9.0, 9.8],
          [-9.5, 9.5],
          [-9.8, 9.8],
          [-10.0, 10.0],
          [-9.8, 10.3],
          [-10.0, 10.8],
          [-10.5, 11.2]
        ]]
      }
    },
    {
      "type": "Feature",
      "properties": {
        "name": "N'Zérékoré",
        "code": "NZ",
        "capital": "N'Zérékoré"
      },
      "geometry": {
        "type": "Polygon",
        "coordinates": [[
          [-10.2, 9.8],
          [-9.8, 9.8],
          [-9.5, 9.5],
          [-9.0, 8.8],
          [-8.6, 8.2],
          [-8.3, 7.6],
          [-8.5, 7.3],
          [-9.0, 7.2],
          [-9.5, 7.5],
          [-10.0, 7.8],
          [-10.5, 8.2],
          [-10.8, 8.8],
          [-10.8, 9.7],
          [-10.2, 9.8]
        ]]
      }
    }
  ]
}
